HIMAWARI-8              
1 40267U 14060A   24295.57195442 -.00000281  00000+0  00000+0 0  9999
2 40267   0.0084 224.9590 0001192  13.6473 138.4715  1.00272614 36709
